CCSDS_OMM_VERS = 2.0
CREATION_DATE  = 
ORIGINATOR     = 

OBJECT_NAME    = ATLAS CENTAUR R/B
OBJECT_ID      = 1972-065B
CENTER_NAME    = EARTH
REF_FRAME      = TEME
TIME_SYSTEM    = UTC
MEAN_ELEMENT_THEORY = SGP/SGP4

EPOCH          = 2026-02-20T01:23:53.651040
MEAN_MOTION    = 14.77631382
ECCENTRICITY   = .00342476
INCLINATION    = 35.0020
RA_OF_ASC_NODE = 49.0737
ARG_OF_PERICENTER = 222.6154
MEAN_ANOMALY   = 137.1887

EPHEMERIS_TYPE = 0
CLASSIFICATION_TYPE = U
NORAD_CAT_ID   = 6155
ELEMENT_SET_NO = 999
REV_AT_EPOCH   = 83865
BSTAR          = .16792141E-3
MEAN_MOTION_DOT = .121E-4
MEAN_MOTION_DDOT = 0

CCSDS_OMM_VERS = 2.0
CREATION_DATE  = 
ORIGINATOR     = 

OBJECT_NAME    = SL-8 R/B
OBJECT_ID      = 1975-112B
CENTER_NAME    = EARTH
REF_FRAME      = TEME
TIME_SYSTEM    = UTC
MEAN_ELEMENT_THEORY = SGP/SGP4

EPOCH          = 2026-02-20T09:23:39.107040
MEAN_MOTION    = 14.38193573
ECCENTRICITY   = .00149084
INCLINATION    = 74.0596
RA_OF_ASC_NODE = 50.7338
ARG_OF_PERICENTER = 150.6577
MEAN_ANOMALY   = 209.5418

EPHEMERIS_TYPE = 0
CLASSIFICATION_TYPE = U
NORAD_CAT_ID   = 8459
ELEMENT_SET_NO = 999
REV_AT_EPOCH   = 62938
BSTAR          = .51049755E-4
MEAN_MOTION_DOT = .129E-5
MEAN_MOTION_DDOT = 0

CCSDS_OMM_VERS = 2.0
CREATION_DATE  = 
ORIGINATOR     = 

OBJECT_NAME    = SL-3 R/B
OBJECT_ID      = 1977-057B
CENTER_NAME    = EARTH
REF_FRAME      = TEME
TIME_SYSTEM    = UTC
MEAN_ELEMENT_THEORY = SGP/SGP4

EPOCH          = 2026-02-20T22:43:19.794432
MEAN_MOTION    = 15.44976190
ECCENTRICITY   = .00070941
INCLINATION    = 97.5750
RA_OF_ASC_NODE = 223.1396
ARG_OF_PERICENTER = 352.1844
MEAN_ANOMALY   = 7.9292

EPHEMERIS_TYPE = 0
CLASSIFICATION_TYPE = U
NORAD_CAT_ID   = 10114
ELEMENT_SET_NO = 999
REV_AT_EPOCH   = 66574
BSTAR          = .27024333E-3
MEAN_MOTION_DOT = .12653E-3
MEAN_MOTION_DDOT = 0

CCSDS_OMM_VERS = 2.0
CREATION_DATE  = 
ORIGINATOR     = 

OBJECT_NAME    = SEASAT 1
OBJECT_ID      = 1978-064A
CENTER_NAME    = EARTH
REF_FRAME      = TEME
TIME_SYSTEM    = UTC
MEAN_ELEMENT_THEORY = SGP/SGP4

EPOCH          = 2026-02-20T21:28:22.165536
MEAN_MOTION    = 14.46146207
ECCENTRICITY   = .00019192
INCLINATION    = 108.0149
RA_OF_ASC_NODE = 90.2549
ARG_OF_PERICENTER = 290.2498
MEAN_ANOMALY   = 69.8441

EPHEMERIS_TYPE = 0
CLASSIFICATION_TYPE = U
NORAD_CAT_ID   = 10967
ELEMENT_SET_NO = 999
REV_AT_EPOCH   = 50408
BSTAR          = .93353932E-4
MEAN_MOTION_DOT = .196E-5
MEAN_MOTION_DDOT = 0

CCSDS_OMM_VERS = 2.0
CREATION_DATE  = 
ORIGINATOR     = 

OBJECT_NAME    = SL-14 R/B
OBJECT_ID      = 1979-011B
CENTER_NAME    = EARTH
REF_FRAME      = TEME
TIME_SYSTEM    = UTC
MEAN_ELEMENT_THEORY = SGP/SGP4

EPOCH          = 2026-02-20T16:17:21.912576
MEAN_MOTION    = 14.91886589
ECCENTRICITY   = .0017562
INCLINATION    = 82.5235
RA_OF_ASC_NODE = 112.7141
ARG_OF_PERICENTER = 112.7437
MEAN_ANOMALY   = 247.5641

EPHEMERIS_TYPE = 0
CLASSIFICATION_TYPE = U
NORAD_CAT_ID   = 11267
ELEMENT_SET_NO = 999
REV_AT_EPOCH   = 52624
BSTAR          = .4854397E-4
MEAN_MOTION_DOT = .518E-5
MEAN_MOTION_DDOT = 0

CCSDS_OMM_VERS = 2.0
CREATION_DATE  = 
ORIGINATOR     = 

OBJECT_NAME    = SL-8 R/B
OBJECT_ID      = 1979-089B
CENTER_NAME    = EARTH
REF_FRAME      = TEME
TIME_SYSTEM    = UTC
MEAN_ELEMENT_THEORY = SGP/SGP4

EPOCH          = 2026-02-20T13:03:48.534336
MEAN_MOTION    = 14.42339441
ECCENTRICITY   = .00169133
INCLINATION    = 74.0688
RA_OF_ASC_NODE = 122.7827
ARG_OF_PERICENTER = 297.1892
MEAN_ANOMALY   = 62.7540

EPHEMERIS_TYPE = 0
CLASSIFICATION_TYPE = U
NORAD_CAT_ID   = 11574
ELEMENT_SET_NO = 999
REV_AT_EPOCH   = 43363
BSTAR          = .73549625E-4
MEAN_MOTION_DOT = .217E-5
MEAN_MOTION_DDOT = 0

CCSDS_OMM_VERS = 2.0
CREATION_DATE  = 
ORIGINATOR     = 

OBJECT_NAME    = SL-14 R/B
OBJECT_ID      = 1980-005B
CENTER_NAME    = EARTH
REF_FRAME      = TEME
TIME_SYSTEM    = UTC
MEAN_ELEMENT_THEORY = SGP/SGP4

EPOCH          = 2026-02-20T19:33:18.338112
MEAN_MOTION    = 14.90907668
ECCENTRICITY   = .00146897
INCLINATION    = 82.5170
RA_OF_ASC_NODE = 323.2397
ARG_OF_PERICENTER = 215.2743
MEAN_ANOMALY   = 144.7506

EPHEMERIS_TYPE = 0
CLASSIFICATION_TYPE = U
NORAD_CAT_ID   = 11672
ELEMENT_SET_NO = 999
REV_AT_EPOCH   = 47397
BSTAR          = .53589691E-4
MEAN_MOTION_DOT = .554E-5
MEAN_MOTION_DDOT = 0

CCSDS_OMM_VERS = 2.0
CREATION_DATE  = 
ORIGINATOR     = 

OBJECT_NAME    = SL-8 R/B
OBJECT_ID      = 1981-003B
CENTER_NAME    = EARTH
REF_FRAME      = TEME
TIME_SYSTEM    = UTC
MEAN_ELEMENT_THEORY = SGP/SGP4

EPOCH          = 2026-02-20T18:40:01.493184
MEAN_MOTION    = 15.10315309
ECCENTRICITY   = .02626291
INCLINATION    = 82.9391
RA_OF_ASC_NODE = 305.6547
ARG_OF_PERICENTER = 237.4898
MEAN_ANOMALY   = 120.0713

EPHEMERIS_TYPE = 0
CLASSIFICATION_TYPE = U
NORAD_CAT_ID   = 12139
ELEMENT_SET_NO = 999
REV_AT_EPOCH   = 31212
BSTAR          = .37705448E-3
MEAN_MOTION_DOT = .14384E-3
MEAN_MOTION_DDOT = 0

CCSDS_OMM_VERS = 2.0
CREATION_DATE  = 
ORIGINATOR     = 

OBJECT_NAME    = SL-3 R/B
OBJECT_ID      = 1981-046B
CENTER_NAME    = EARTH
REF_FRAME      = TEME
TIME_SYSTEM    = UTC
MEAN_ELEMENT_THEORY = SGP/SGP4

EPOCH          = 2026-02-20T21:50:15.282240
MEAN_MOTION    = 15.41509654
ECCENTRICITY   = .00207168
INCLINATION    = 81.2327
RA_OF_ASC_NODE = 309.8845
ARG_OF_PERICENTER = 77.9133
MEAN_ANOMALY   = 282.4429

EPHEMERIS_TYPE = 0
CLASSIFICATION_TYPE = U
NORAD_CAT_ID   = 12465
ELEMENT_SET_NO = 999
REV_AT_EPOCH   = 43584
BSTAR          = .27833546E-3
MEAN_MOTION_DOT = .11794E-3
MEAN_MOTION_DDOT = 0

CCSDS_OMM_VERS = 2.0
CREATION_DATE  = 
ORIGINATOR     = 

OBJECT_NAME    = SL-3 R/B
OBJECT_ID      = 1981-103B
CENTER_NAME    = EARTH
REF_FRAME      = TEME
TIME_SYSTEM    = UTC
MEAN_ELEMENT_THEORY = SGP/SGP4

EPOCH          = 2026-02-20T22:24:39.265920
MEAN_MOTION    = 15.21155706
ECCENTRICITY   = .00130692
INCLINATION    = 81.1561
RA_OF_ASC_NODE = 233.0872
ARG_OF_PERICENTER = 346.0510
MEAN_ANOMALY   = 14.0358

EPHEMERIS_TYPE = 0
CLASSIFICATION_TYPE = U
NORAD_CAT_ID   = 12904
ELEMENT_SET_NO = 999
REV_AT_EPOCH   = 97068
BSTAR          = .22195558E-3
MEAN_MOTION_DOT = .4978E-4
MEAN_MOTION_DDOT = 0

CCSDS_OMM_VERS = 2.0
CREATION_DATE  = 
ORIGINATOR     = 

OBJECT_NAME    = SL-3 R/B
OBJECT_ID      = 1982-013B
CENTER_NAME    = EARTH
REF_FRAME      = TEME
TIME_SYSTEM    = UTC
MEAN_ELEMENT_THEORY = SGP/SGP4

EPOCH          = 2026-02-20T21:11:53.610432
MEAN_MOTION    = 15.21818706
ECCENTRICITY   = .0021882
INCLINATION    = 81.1765
RA_OF_ASC_NODE = 180.4614
ARG_OF_PERICENTER = 235.1158
MEAN_ANOMALY   = 124.8017

EPHEMERIS_TYPE = 0
CLASSIFICATION_TYPE = U
NORAD_CAT_ID   = 13068
ELEMENT_SET_NO = 999
REV_AT_EPOCH   = 40179
BSTAR          = .21317421E-3
MEAN_MOTION_DOT = .4897E-4
MEAN_MOTION_DDOT = 0

CCSDS_OMM_VERS = 2.0
CREATION_DATE  = 
ORIGINATOR     = 

OBJECT_NAME    = SL-3 R/B
OBJECT_ID      = 1982-039B
CENTER_NAME    = EARTH
REF_FRAME      = TEME
TIME_SYSTEM    = UTC
MEAN_ELEMENT_THEORY = SGP/SGP4

EPOCH          = 2026-02-20T21:24:25.688736
MEAN_MOTION    = 15.09976504
ECCENTRICITY   = .00300178
INCLINATION    = 81.1590
RA_OF_ASC_NODE = 235.3260
ARG_OF_PERICENTER = 19.3304
MEAN_ANOMALY   = 340.9052

EPHEMERIS_TYPE = 0
CLASSIFICATION_TYPE = U
NORAD_CAT_ID   = 13154
ELEMENT_SET_NO = 999
REV_AT_EPOCH   = 37910
BSTAR          = .12814405E-3
MEAN_MOTION_DOT = .2125E-4
MEAN_MOTION_DDOT = 0

