ATLAS CENTAUR R/B       
1 06155U 72065B   26051.05825985  .00001210  00000+0  16792-3 0  9994
2 06155  35.0020  49.0737 0034247 222.6154 137.1887 14.77631382838658
SL-8 R/B                
1 08459U 75112B   26051.39142485  .00000129  00000+0  51050-4 0  9998
2 08459  74.0596  50.7338 0014908 150.6577 209.5418 14.38193573629389
SL-3 R/B                
1 10114U 77057B   26051.94675688  .00012653  00000+0  27024-3 0  9994
2 10114  97.5750 223.1396 0007094 352.1844   7.9292 15.44976190665748
SEASAT 1                
1 10967U 78064A   26051.89470099  .00000196  00000+0  93354-4 0  9991
2 10967 108.0149  90.2549 0001919 290.2498  69.8441 14.46146207504085
SL-14 R/B               
1 11267U 79011B   26051.67872584  .00000518  00000+0  48544-4 0  9998
2 11267  82.5235 112.7141 0017562 112.7437 247.5641 14.91886589526244
SL-8 R/B                
1 11574U 79089B   26051.54431174  .00000217  00000+0  73550-4 0  9997
2 11574  74.0688 122.7827 0016913 297.1892  62.7540 14.42339441433638
SL-14 R/B               
1 11672U 80005B   26051.81479558  .00000554  00000+0  53590-4 0  9990
2 11672  82.5170 323.2397 0014689 215.2743 144.7506 14.90907668473970
SL-8 R/B                
1 12139U 81003B   26051.77779506  .00014384  00000+0  37705-3 0  9994
2 12139  82.9391 305.6547 0262629 237.4898 120.0713 15.10315309312129
SL-3 R/B                
1 12465U 81046B   26051.90989910  .00011794  00000+0  27834-3 0  9994
2 12465  81.2327 309.8845 0020716  77.9133 282.4429 15.41509654435841
SL-3 R/B                
1 12904U 81103B   26051.93378780  .00004978  00000+0  22196-3 0  9998
2 12904  81.1561 233.0872 0013069 346.0510  14.0358 15.21155706970687
SL-3 R/B                
1 13068U 82013B   26051.88325938  .00004897  00000+0  21317-3 0  9996
2 13068  81.1765 180.4614 0021882 235.1158 124.8017 15.21818706401791
SL-3 R/B                
1 13154U 82039B   26051.89196399  .00002125  00000+0  12814-3 0  9992
2 13154  81.1590 235.3260 0030017  19.3304 340.9052 15.09976504379101
